{
  "type": "FeatureCollection",
  "features": [
    {
      "type": "Feature",
      "properties": {
        "norad_id": 32225,
        "name": "FENGYUN 1C DEB",
        "group": "fengyun-1c-debris",
        "lat": 79.60866132971964,
        "lon": -24.935821165714202,
        "alt_km": 867.3014024428485,
        "timestamp": "2025-12-13T05:42:57.845922+00:00",
        "meta_object_name": "FENGYUN 1C DEB",
        "meta_object_id": "1999-025CVX",
        "meta_epoch": "2025-12-10T21:13:47.563392",
        "meta_mean_motion": 14.13042634,
        "meta_eccentricity": 0.0071641,
        "meta_inclination": 99.0927,
        "meta_ra_of_asc_node": 33.5192,
        "meta_arg_of_pericenter": 211.7536,
        "meta_mean_anomaly": 147.9305,
        "meta_ephemeris_type": 0,
        "meta_classification_type": "U",
        "meta_norad_cat_id": 32225,
        "meta_element_set_no": 999,
        "meta_rev_at_epoch": 68090,
        "meta_bstar": 0.00031798,
        "meta_mean_motion_dot": 5.62e-06,
        "meta_mean_motion_ddot": 0,
        "tle_line1": "1 32225U 99025CVX 25344.88457828  .00000562  00000+0  31798-3 0  9990",
        "tle_line2": "2 32225  99.0927  33.5192 0071641 211.7536 147.9305 14.13042634680909"
      },
      "geometry": {
        "type": "Point",
        "coordinates": [
          -24.935821165714202,
          79.60866132971964
        ]
      }
    },
    {
      "type": "Feature",
      "properties": {
        "norad_id": 32230,
        "name": "FENGYUN 1C DEB",
        "group": "fengyun-1c-debris",
        "lat": -3.9550897166022914,
        "lon": 137.50154919665113,
        "alt_km": 709.9137961003444,
        "timestamp": "2025-12-13T05:42:57.845933+00:00",
        "meta_object_name": "FENGYUN 1C DEB",
        "meta_object_id": "1999-025CWC",
        "meta_epoch": "2025-12-11T09:27:40.133664",
        "meta_mean_motion": 14.5606844,
        "meta_eccentricity": 0.00506958,
        "meta_inclination": 98.8712,
        "meta_ra_of_asc_node": 134.9234,
        "meta_arg_of_pericenter": 93.4093,
        "meta_mean_anomaly": 322.8366,
        "meta_ephemeris_type": 0,
        "meta_classification_type": "U",
        "meta_norad_cat_id": 32230,
        "meta_element_set_no": 999,
        "meta_rev_at_epoch": 60650,
        "meta_bstar": 0.005963693,
        "meta_mean_motion_dot": 0.00026787,
        "meta_mean_motion_ddot": 0,
        "tle_line1": "1 32230U 99025CWC 25345.39421451  .00026787  00000+0  59637-2 0  9994",
        "tle_line2": "2 32230  98.8712 134.9234 0050695  93.4093 322.8366 14.56068440606501"
      },
      "geometry": {
        "type": "Point",
        "coordinates": [
          137.50154919665113,
          -3.9550897166022914
        ]
      }
    },
    {
      "type": "Feature",
      "properties": {
        "norad_id": 32234,
        "name": "FENGYUN 1C DEB",
        "group": "fengyun-1c-debris",
        "lat": 15.56682713826395,
        "lon": -165.34420305184622,
        "alt_km": 838.6972704293357,
        "timestamp": "2025-12-13T05:42:57.845944+00:00",
        "meta_object_name": "FENGYUN 1C DEB",
        "meta_object_id": "1999-025CWG",
        "meta_epoch": "2025-12-12T00:21:39.640896",
        "meta_mean_motion": 13.94120362,
        "meta_eccentricity": 0.01375114,
        "meta_inclination": 98.5287,
        "meta_ra_of_asc_node": 195.9219,
        "meta_arg_of_pericenter": 338.147,
        "meta_mean_anomaly": 21.3862,
        "meta_ephemeris_type": 0,
        "meta_classification_type": "U",
        "meta_norad_cat_id": 32234,
        "meta_element_set_no": 999,
        "meta_rev_at_epoch": 93199,
        "meta_bstar": 0.0020757912,
        "meta_mean_motion_dot": 2.936e-05,
        "meta_mean_motion_ddot": 0,
        "tle_line1": "1 32234U 99025CWG 25346.01504214  .00002936  00000+0  20758-2 0  9999",
        "tle_line2": "2 32234  98.5287 195.9219 0137511 338.1470  21.3862 13.94120362931999"
      },
      "geometry": {
        "type": "Point",
        "coordinates": [
          -165.34420305184622,
          15.56682713826395
        ]
      }
    },
    {
      "type": "Feature",
      "properties": {
        "norad_id": 32241,
        "name": "FENGYUN 1C DEB",
        "group": "fengyun-1c-debris",
        "lat": 67.99533515284325,
        "lon": -139.98233394463549,
        "alt_km": 827.1492136796223,
        "timestamp": "2025-12-13T05:42:57.845954+00:00",
        "meta_object_name": "FENGYUN 1C DEB",
        "meta_object_id": "1999-025CWP",
        "meta_epoch": "2025-12-12T07:20:24.607968",
        "meta_mean_motion": 14.28738294,
        "meta_eccentricity": 0.01463213,
        "meta_inclination": 99.0781,
        "meta_ra_of_asc_node": 15.7419,
        "meta_arg_of_pericenter": 224.7248,
        "meta_mean_anomaly": 134.2058,
        "meta_ephemeris_type": 0,
        "meta_classification_type": "U",
        "meta_norad_cat_id": 32241,
        "meta_element_set_no": 999,
        "meta_rev_at_epoch": 93817,
        "meta_bstar": 0.0024053714,
        "meta_mean_motion_dot": 6.748e-05,
        "meta_mean_motion_ddot": 0,
        "tle_line1": "1 32241U 99025CWP 25346.30584037  .00006748  00000+0  24054-2 0  9998",
        "tle_line2": "2 32241  99.0781  15.7419 0146321 224.7248 134.2058 14.28738294938170"
      },
      "geometry": {
        "type": "Point",
        "coordinates": [
          -139.98233394463549,
          67.99533515284325
        ]
      }
    },
    {
      "type": "Feature",
      "properties": {
        "norad_id": 32243,
        "name": "FENGYUN 1C DEB",
        "group": "fengyun-1c-debris",
        "lat": 10.46304005020663,
        "lon": 10.280284981013251,
        "alt_km": 946.1621604886477,
        "timestamp": "2025-12-13T05:42:57.845965+00:00",
        "meta_object_name": "FENGYUN 1C DEB",
        "meta_object_id": "1999-025CWR",
        "meta_epoch": "2025-12-12T07:26:20.719392",
        "meta_mean_motion": 14.04594914,
        "meta_eccentricity": 0.02695287,
        "meta_inclination": 98.2686,
        "meta_ra_of_asc_node": 10.9722,
        "meta_arg_of_pericenter": 124.7501,
        "meta_mean_anomaly": 237.9365,
        "meta_ephemeris_type": 0,
        "meta_classification_type": "U",
        "meta_norad_cat_id": 32243,
        "meta_element_set_no": 999,
        "meta_rev_at_epoch": 93582,
        "meta_bstar": 0.0028356056,
        "meta_mean_motion_dot": 6.238e-05,
        "meta_mean_motion_ddot": 0,
        "tle_line1": "1 32243U 99025CWR 25346.30996203  .00006238  00000+0  28356-2 0  9995",
        "tle_line2": "2 32243  98.2686  10.9722 0269528 124.7501 237.9365 14.04594914935821"
      },
      "geometry": {
        "type": "Point",
        "coordinates": [
          10.280284981013251,
          10.46304005020663
        ]
      }
    },
    {
      "type": "Feature",
      "properties": {
        "norad_id": 32245,
        "name": "FENGYUN 1C DEB",
        "group": "fengyun-1c-debris",
        "lat": 52.2357460839397,
        "lon": 171.98384264240923,
        "alt_km": 613.2901688991033,
        "timestamp": "2025-12-13T05:42:57.845977+00:00",
        "meta_object_name": "FENGYUN 1C DEB",
        "meta_object_id": "1999-025CWT",
        "meta_epoch": "2025-12-08T06:47:00.083040",
        "meta_mean_motion": 14.76843452,
        "meta_eccentricity": 0.00978135,
        "meta_inclination": 98.6545,
        "meta_ra_of_asc_node": 178.0112,
        "meta_arg_of_pericenter": 355.9473,
        "meta_mean_anomaly": 4.0932,
        "meta_ephemeris_type": 0,
        "meta_classification_type": "U",
        "meta_norad_cat_id": 32245,
        "meta_element_set_no": 999,
        "meta_rev_at_epoch": 66040,
        "meta_bstar": 0.0014541087,
        "meta_mean_motion_dot": 0.00011,
        "meta_mean_motion_ddot": 0,
        "tle_line1": "1 32245U 99025CWT 25342.28263985  .00011000  00000+0  14541-2 0  9998",
        "tle_line2": "2 32245  98.6545 178.0112 0097813 355.9473   4.0932 14.76843452660407"
      },
      "geometry": {
        "type": "Point",
        "coordinates": [
          171.98384264240923,
          52.2357460839397
        ]
      }
    },
    {
      "type": "Feature",
      "properties": {
        "norad_id": 32304,
        "name": "FENGYUN 1C DEB",
        "group": "fengyun-1c-debris",
        "lat": 5.064880384984897,
        "lon": -58.98246177947769,
        "alt_km": 752.7588658808554,
        "timestamp": "2025-12-13T05:42:57.845987+00:00",
        "meta_object_name": "FENGYUN 1C DEB",
        "meta_object_id": "1999-025CWV",
        "meta_epoch": "2025-12-03T02:19:20.087328",
        "meta_mean_motion": 14.50391603,
        "meta_eccentricity": 0.00495576,
        "meta_inclination": 99.3949,
        "meta_ra_of_asc_node": 290.5539,
        "meta_arg_of_pericenter": 255.7789,
        "meta_mean_anomaly": 103.7894,
        "meta_ephemeris_type": 0,
        "meta_classification_type": "U",
        "meta_norad_cat_id": 32304,
        "meta_element_set_no": 999,
        "meta_rev_at_epoch": 56133,
        "meta_bstar": 0.0019806873,
        "meta_mean_motion_dot": 7.809e-05,
        "meta_mean_motion_ddot": 0,
        "tle_line1": "1 32304U 99025CWV 25337.09676027  .00007809  00000+0  19807-2 0  9994",
        "tle_line2": "2 32304  99.3949 290.5539 0049557 255.7789 103.7894 14.50391603561335"
      },
      "geometry": {
        "type": "Point",
        "coordinates": [
          -58.98246177947769,
          5.064880384984897
        ]
      }
    }
  ]
}